[{"OBJECT_NAME":"STARLINK-1730","OBJECT_ID":"2020-070AH","EPOCH":"2026-03-09T12:33:31.916448","MEAN_MOTION":15.43854236,"ECCENTRICITY":0.00026091,"INCLINATION":53.0309,"RA_OF_ASC_NODE":123.2007,"ARG_OF_PERICENTER":338.643,"MEAN_ANOMALY":21.4466,"EPHEMERIS_TYPE":0,"CLASSIFICATION_TYPE":"U","NORAD_CAT_ID":46563,"ELEMENT_SET_NO":999,"REV_AT_EPOCH":30024,"BSTAR":0.0016704908,"MEAN_MOTION_DOT":0.00077328,"MEAN_MOTION_DDOT":0},{"OBJECT_NAME":"ICEYE-X35","OBJECT_ID":"2023-174AY","EPOCH":"2026-03-09T23:23:30.016608","MEAN_MOTION":15.44468851,"ECCENTRICITY":0.00107431,"INCLINATION":97.3849,"RA_OF_ASC_NODE":151.4029,"ARG_OF_PERICENTER":192.4001,"MEAN_ANOMALY":167.6984,"EPHEMERIS_TYPE":0,"CLASSIFICATION_TYPE":"U","NORAD_CAT_ID":58302,"ELEMENT_SET_NO":999,"REV_AT_EPOCH":12999,"BSTAR":0.00096661577,"MEAN_MOTION_DOT":0.00044959,"MEAN_MOTION_DDOT":0}]
